METEOSAT-11 (MSG-4)     
1 40732U 15034A   26115.78285896  .00000052  00000+0  00000+0 0  9992
2 40732   3.0706  71.3812 0001605 344.1619  89.6845  1.00263805  6692
ELEKTRO-L 2             
1 41105U 15074A   26115.70682659 -.00000127  00000+0  00000+0 0  9995
2 41105   6.5646  71.1540 0002298 254.2870 128.2279  1.00270542 37986
INSAT-3DR               
1 41752U 16054A   26115.79559899 -.00000090  00000+0  00000+0 0  9999
2 41752   0.1123  86.1637 0011677 195.1508 292.8983  1.00271286 35297
HIMAWARI-9              
1 41836U 16064A   26115.73753208 -.00000288  00000+0  00000+0 0  9996
2 41836   0.0343 133.3596 0000767 271.8055 214.8570  1.00272703 34682
GOES 16                 
1 41866U 16071A   26115.62544728 -.00000104  00000+0  00000+0 0  9997
2 41866   0.2096  85.2522 0001543 247.7106   1.1255  1.00271047 34573
FENGYUN 4A              
1 41882U 16077A   26115.30638583 -.00000369  00000+0  00000+0 0  9992
2 41882   2.1903  80.7930 0008213 141.4993 225.0593  1.00267100 34406
CYGFM05                 
1 41884U 16078A   26115.74481047  .00023465  00000+0  34598-3 0  9998
2 41884  34.9569 247.2436 0007283  14.1610 345.9317 15.54375547520582
CYGFM04                 
1 41885U 16078B   26115.67573234  .00028405  00000+0  35755-3 0  9996
2 41885  34.9323 217.8561 0006120  59.6325 300.5004 15.58596493520791
CYGFM02                 
1 41886U 16078C   26115.70070267  .00032262  00000+0  37080-3 0  9998
2 41886  34.9406 213.5628 0007176  60.9673 299.1771 15.60946063520951
CYGFM01                 
1 41887U 16078D   26115.75513014  .00024675  00000+0  35574-3 0  9991
2 41887  34.9400 248.6375 0007034   7.5780 352.5049 15.54979339520534
CYGFM08                 
1 41888U 16078E   26115.73445211  .00027056  00000+0  35742-3 0  9996
2 41888  34.9432 229.6391 0008157  39.3925 320.7392 15.57306928520784
CYGFM07                 
1 41890U 16078G   26115.69672250  .00026992  00000+0  35570-3 0  9996
2 41890  34.9447 218.2736 0006535  58.4560 301.6802 15.57387079520808
CYGFM03                 
1 41891U 16078H   26115.66766539  .00026350  00000+0  34729-3 0  9991
2 41891  34.9402 220.4225 0005835  44.1998 315.9192 15.57391212520777
FENGYUN 3D              
1 43010U 17072A   26115.85484771 -.00000083  00000+0 -17231-4 0  9994
2 43010  99.0096  89.3424 0001377 155.5765 204.5475 14.19727024437564
NOAA 20 (JPSS-1)        
1 43013U 17073A   26115.84180818  .00000067  00000+0  52739-4 0  9994
2 43013  98.7744  55.7767 0002108  73.3563 286.7844 14.19547502437042
GOES 17                 
1 43226U 18022A   26115.86780985 -.00000195  00000+0  00000+0 0  9990
2 43226   0.8053  86.4106 0000672 269.3830  81.0047  1.00272049 29899
FENGYUN 2H              
1 43491U 18050A   26115.86796598 -.00000140  00000+0  00000+0 0  9992
2 43491   2.8987  79.6576 0001755 159.4280   6.5082  1.00274293 28913
