[{"OBJECT_NAME":"METEOSAT-11 (MSG-4)","OBJECT_ID":"2015-034A","EPOCH":"2026-04-25T18:47:19.014144","MEAN_MOTION":1.00263805,"ECCENTRICITY":0.0001605,"INCLINATION":3.0706,"RA_OF_ASC_NODE":71.3812,"ARG_OF_PERICENTER":344.1619,"MEAN_ANOMALY":89.6845,"EPHEMERIS_TYPE":0,"CLASSIFICATION_TYPE":"U","NORAD_CAT_ID":40732,"ELEMENT_SET_NO":999,"REV_AT_EPOCH":669,"BSTAR":0,"MEAN_MOTION_DOT":5.2e-7,"MEAN_MOTION_DDOT":0},{"OBJECT_NAME":"ELEKTRO-L 2","OBJECT_ID":"2015-074A","EPOCH":"2026-04-25T16:57:49.817376","MEAN_MOTION":1.00270542,"ECCENTRICITY":0.0002298,"INCLINATION":6.5646,"RA_OF_ASC_NODE":71.154,"ARG_OF_PERICENTER":254.287,"MEAN_ANOMALY":128.2279,"EPHEMERIS_TYPE":0,"CLASSIFICATION_TYPE":"U","NORAD_CAT_ID":41105,"ELEMENT_SET_NO":999,"REV_AT_EPOCH":3798,"BSTAR":0,"MEAN_MOTION_DOT":-1.27e-6,"MEAN_MOTION_DDOT":0},{"OBJECT_NAME":"INSAT-3DR","OBJECT_ID":"2016-054A","EPOCH":"2026-04-25T19:05:39.752736","MEAN_MOTION":1.00271286,"ECCENTRICITY":0.0011677,"INCLINATION":0.1123,"RA_OF_ASC_NODE":86.1637,"ARG_OF_PERICENTER":195.1508,"MEAN_ANOMALY":292.8983,"EPHEMERIS_TYPE":0,"CLASSIFICATION_TYPE":"U","NORAD_CAT_ID":41752,"ELEMENT_SET_NO":999,"REV_AT_EPOCH":3529,"BSTAR":0,"MEAN_MOTION_DOT":-9.0e-7,"MEAN_MOTION_DDOT":0},{"OBJECT_NAME":"HIMAWARI-9","OBJECT_ID":"2016-064A","EPOCH":"2026-04-25T17:42:02.771712","MEAN_MOTION":1.00272703,"ECCENTRICITY":7.67e-5,"INCLINATION":0.0343,"RA_OF_ASC_NODE":133.3596,"ARG_OF_PERICENTER":271.8055,"MEAN_ANOMALY":214.857,"EPHEMERIS_TYPE":0,"CLASSIFICATION_TYPE":"U","NORAD_CAT_ID":41836,"ELEMENT_SET_NO":999,"REV_AT_EPOCH":3468,"BSTAR":0,"MEAN_MOTION_DOT":-2.88e-6,"MEAN_MOTION_DDOT":0},{"OBJECT_NAME":"GOES 16","OBJECT_ID":"2016-071A","EPOCH":"2026-04-25T15:00:38.644992","MEAN_MOTION":1.00271047,"ECCENTRICITY":0.0001543,"INCLINATION":0.2096,"RA_OF_ASC_NODE":85.2522,"ARG_OF_PERICENTER":247.7106,"MEAN_ANOMALY":1.1255,"EPHEMERIS_TYPE":0,"CLASSIFICATION_TYPE":"U","NORAD_CAT_ID":41866,"ELEMENT_SET_NO":999,"REV_AT_EPOCH":3457,"BSTAR":0,"MEAN_MOTION_DOT":-1.04e-6,"MEAN_MOTION_DDOT":0},{"OBJECT_NAME":"FENGYUN 4A","OBJECT_ID":"2016-077A","EPOCH":"2026-04-25T07:21:11.735712","MEAN_MOTION":1.002671,"ECCENTRICITY":0.0008213,"INCLINATION":2.1903,"RA_OF_ASC_NODE":80.793,"ARG_OF_PERICENTER":141.4993,"MEAN_ANOMALY":225.0593,"EPHEMERIS_TYPE":0,"CLASSIFICATION_TYPE":"U","NORAD_CAT_ID":41882,"ELEMENT_SET_NO":999,"REV_AT_EPOCH":3440,"BSTAR":0,"MEAN_MOTION_DOT":-3.69e-6,"MEAN_MOTION_DDOT":0},{"OBJECT_NAME":"CYGFM05","OBJECT_ID":"2016-078A","EPOCH":"2026-04-25T17:52:31.624608","MEAN_MOTION":15.54375547,"ECCENTRICITY":0.0007283,"INCLINATION":34.9569,"RA_OF_ASC_NODE":247.2436,"ARG_OF_PERICENTER":14.161,"MEAN_ANOMALY":345.9317,"EPHEMERIS_TYPE":0,"CLASSIFICATION_TYPE":"U","NORAD_CAT_ID":41884,"ELEMENT_SET_NO":999,"REV_AT_EPOCH":52058,"BSTAR":0.00034598,"MEAN_MOTION_DOT":0.00023465,"MEAN_MOTION_DDOT":0},{"OBJECT_NAME":"CYGFM04","OBJECT_ID":"2016-078B","EPOCH":"2026-04-25T16:13:03.274176","MEAN_MOTION":15.58596493,"ECCENTRICITY":0.000612,"INCLINATION":34.9323,"RA_OF_ASC_NODE":217.8561,"ARG_OF_PERICENTER":59.6325,"MEAN_ANOMALY":300.5004,"EPHEMERIS_TYPE":0,"CLASSIFICATION_TYPE":"U","NORAD_CAT_ID":41885,"ELEMENT_SET_NO":999,"REV_AT_EPOCH":52079,"BSTAR":0.00035755,"MEAN_MOTION_DOT":0.00028405,"MEAN_MOTION_DDOT":0},{"OBJECT_NAME":"CYGFM02","OBJECT_ID":"2016-078C","EPOCH":"2026-04-25T16:49:00.710688","MEAN_MOTION":15.60946063,"ECCENTRICITY":0.0007176,"INCLINATION":34.9406,"RA_OF_ASC_NODE":213.5628,"ARG_OF_PERICENTER":60.9673,"MEAN_ANOMALY":299.1771,"EPHEMERIS_TYPE":0,"CLASSIFICATION_TYPE":"U","NORAD_CAT_ID":41886,"ELEMENT_SET_NO":999,"REV_AT_EPOCH":52095,"BSTAR":0.0003708,"MEAN_MOTION_DOT":0.00032262,"MEAN_MOTION_DDOT":0},{"OBJECT_NAME":"CYGFM01","OBJECT_ID":"2016-078D","EPOCH":"2026-04-25T18:07:23.244096","MEAN_MOTION":15.54979339,"ECCENTRICITY":0.0007034,"INCLINATION":34.94,"RA_OF_ASC_NODE":248.6375,"ARG_OF_PERICENTER":7.578,"MEAN_ANOMALY":352.5049,"EPHEMERIS_TYPE":0,"CLASSIFICATION_TYPE":"U","NORAD_CAT_ID":41887,"ELEMENT_SET_NO":999,"REV_AT_EPOCH":52053,"BSTAR":0.00035574,"MEAN_MOTION_DOT":0.00024675,"MEAN_MOTION_DDOT":0},{"OBJECT_NAME":"CYGFM08","OBJECT_ID":"2016-078E","EPOCH":"2026-04-25T17:37:36.662304","MEAN_MOTION":15.57306928,"ECCENTRICITY":0.0008157,"INCLINATION":34.9432,"RA_OF_ASC_NODE":229.6391,"ARG_OF_PERICENTER":39.3925,"MEAN_ANOMALY":320.7392,"EPHEMERIS_TYPE":0,"CLASSIFICATION_TYPE":"U","NORAD_CAT_ID":41888,"ELEMENT_SET_NO":999,"REV_AT_EPOCH":52078,"BSTAR":0.00035742,"MEAN_MOTION_DOT":0.00027056,"MEAN_MOTION_DDOT":0},{"OBJECT_NAME":"CYGFM07","OBJECT_ID":"2016-078G","EPOCH":"2026-04-25T16:43:16.824000","MEAN_MOTION":15.57387079,"ECCENTRICITY":0.0006535,"INCLINATION":34.9447,"RA_OF_ASC_NODE":218.2736,"ARG_OF_PERICENTER":58.456,"MEAN_ANOMALY":301.6802,"EPHEMERIS_TYPE":0,"CLASSIFICATION_TYPE":"U","NORAD_CAT_ID":41890,"ELEMENT_SET_NO":999,"REV_AT_EPOCH":52080,"BSTAR":0.0003557,"MEAN_MOTION_DOT":0.00026992,"MEAN_MOTION_DDOT":0},{"OBJECT_NAME":"CYGFM03","OBJECT_ID":"2016-078H","EPOCH":"2026-04-25T16:01:26.289696","MEAN_MOTION":15.57391212,"ECCENTRICITY":0.0005835,"INCLINATION":34.9402,"RA_OF_ASC_NODE":220.4225,"ARG_OF_PERICENTER":44.1998,"MEAN_ANOMALY":315.9192,"EPHEMERIS_TYPE":0,"CLASSIFICATION_TYPE":"U","NORAD_CAT_ID":41891,"ELEMENT_SET_NO":999,"REV_AT_EPOCH":52077,"BSTAR":0.00034729,"MEAN_MOTION_DOT":0.0002635,"MEAN_MOTION_DDOT":0},{"OBJECT_NAME":"FENGYUN 3D","OBJECT_ID":"2017-072A","EPOCH":"2026-04-25T20:30:58.842144","MEAN_MOTION":14.19727024,"ECCENTRICITY":0.0001377,"INCLINATION":99.0096,"RA_OF_ASC_NODE":89.3424,"ARG_OF_PERICENTER":155.5765,"MEAN_ANOMALY":204.5475,"EPHEMERIS_TYPE":0,"CLASSIFICATION_TYPE":"U","NORAD_CAT_ID":43010,"ELEMENT_SET_NO":999,"REV_AT_EPOCH":43756,"BSTAR":-1.7231e-5,"MEAN_MOTION_DOT":-8.3e-7,"MEAN_MOTION_DDOT":0},{"OBJECT_NAME":"NOAA 20 (JPSS-1)","OBJECT_ID":"2017-073A","EPOCH":"2026-04-25T20:12:12.226752","MEAN_MOTION":14.19547502,"ECCENTRICITY":0.0002108,"INCLINATION":98.7744,"RA_OF_ASC_NODE":55.7767,"ARG_OF_PERICENTER":73.3563,"MEAN_ANOMALY":286.7844,"EPHEMERIS_TYPE":0,"CLASSIFICATION_TYPE":"U","NORAD_CAT_ID":43013,"ELEMENT_SET_NO":999,"REV_AT_EPOCH":43704,"BSTAR":5.2739e-5,"MEAN_MOTION_DOT":6.7e-7,"MEAN_MOTION_DDOT":0},{"OBJECT_NAME":"GOES 17","OBJECT_ID":"2018-022A","EPOCH":"2026-04-25T20:49:38.771040","MEAN_MOTION":1.00272049,"ECCENTRICITY":6.72e-5,"INCLINATION":0.8053,"RA_OF_ASC_NODE":86.4106,"ARG_OF_PERICENTER":269.383,"MEAN_ANOMALY":81.0047,"EPHEMERIS_TYPE":0,"CLASSIFICATION_TYPE":"U","NORAD_CAT_ID":43226,"ELEMENT_SET_NO":999,"REV_AT_EPOCH":2989,"BSTAR":0,"MEAN_MOTION_DOT":-1.95e-6,"MEAN_MOTION_DDOT":0},{"OBJECT_NAME":"FENGYUN 2H","OBJECT_ID":"2018-050A","EPOCH":"2026-04-25T20:49:52.260672","MEAN_MOTION":1.00274293,"ECCENTRICITY":0.0001755,"INCLINATION":2.8987,"RA_OF_ASC_NODE":79.6576,"ARG_OF_PERICENTER":159.428,"MEAN_ANOMALY":6.5082,"EPHEMERIS_TYPE":0,"CLASSIFICATION_TYPE":"U","NORAD_CAT_ID":43491,"ELEMENT_SET_NO":999,"REV_AT_EPOCH":2891,"BSTAR":0,"MEAN_MOTION_DOT":-1.4e-6,"MEAN_MOTION_DDOT":0}]
